NORAD_CAT_ID,OBJECT_NAME,OBJECT_TYPE,EPOCH,MEAN_MOTION,ECCENTRICITY,INCLINATION,RA_OF_ASC_NODE,ARG_OF_PERICENTER,MEAN_ANOMALY,BSTAR,MEAN_MOTION_DOT,MEAN_MOTION_DDOT,TLE_LINE0,TLE_LINE1,TLE_LINE2,SEMIMAJOR_AXIS,PERIOD,APOGEE,PERIGEE,DECAYED
55432.0,STARLINK-5637,PAYLOAD,2023-05-14 04:57:59,14.98324213,0.0003347,69.9987,182.6179,270.2124,89.8652,1.8031e-05,1.22e-06,0.0,0 STARLINK-5637,1 55432U 23014AT  23134.20694276  .00000122  00000-0  18031-4 0  9990,2 55432  69.9987 182.6179 0003347 270.2124  89.8652 14.98324213 15773,6950.211,96.107,574.402,569.75,0.0
55432.0,STARLINK-5637,PAYLOAD,2023-05-14 12:58:40,14.9832556,0.0003311,69.9987,181.7766,270.6505,89.4274,1.4354e-05,7.8e-07,0.0,0 STARLINK-5637,1 55432U 23014AT  23134.54074314  .00000078  00000-0  14354-4 0  9996,2 55432  69.9987 181.7766 0003311 270.6505  89.4274 14.98325560 16765,6950.207,96.107,574.373,569.77,0.0
55432.0,STARLINK-5637,PAYLOAD,2023-05-14 20:59:20,14.98326136,0.0003246,69.9988,180.9347,270.3043,89.7744,-2.4999e-07,-9.6e-07,0.0,0 STARLINK-5637,1 55432U 23014AT  23134.87454401 -.00000096  00000-0 -24999-6 0  9991,2 55432  69.9988 180.9347 0003246 270.3043  89.7744 14.98326136 16814,6950.205,96.107,574.326,569.814,0.0
55432.0,STARLINK-5637,PAYLOAD,2023-05-15 05:00:00,14.98331001,0.0003324,69.9987,180.0933,270.4221,89.6557,2.8026e-05,2.41e-06,0.0,0 STARLINK-5637,1 55432U 23014AT  23135.20833948  .00000241  00000-0  28026-4 0  9999,2 55432  69.9987 180.0933 0003324 270.4221  89.6557 14.98331001 15920,6950.19,96.107,574.365,569.745,0.0
55432.0,STARLINK-5637,PAYLOAD,2023-05-15 13:00:40,14.9833256,0.0003371,69.9985,179.2514,269.2616,90.8156,9.1852e-06,1.7e-07,0.0,0 STARLINK-5637,1 55432U 23014AT  23135.54213855  .00000017  00000-0  91852-5 0  9994,2 55432  69.9985 179.2514 0003371 269.2616  90.8156 14.98332560 16919,6950.185,96.107,574.393,569.707,0.0
55432.0,STARLINK-5637,PAYLOAD,2023-05-16 09:50:25,14.98331306,0.0003416,69.9983,177.0632,268.69,91.3868,4.781e-05,4.77e-06,0.0,0 STARLINK-5637,1 55432U 23014AT  23136.41001727  .00000477  00000-0  47810-4 0  9998,2 55432  69.9983 177.0632 0003416 268.6900  91.3868 14.98331306 16107,6950.189,96.107,574.428,569.68,0.0
55432.0,STARLINK-5637,PAYLOAD,2023-05-16 13:02:41,14.98331882,0.000341,69.9983,176.7265,268.6803,91.3966,5.1903e-05,5.26e-06,0.0,0 STARLINK-5637,1 55432U 23014AT  23136.54353658  .00000526  00000-0  51903-4 0  9998,2 55432  69.9983 176.7265 0003410 268.6803  91.3966 14.98331882 17065,6950.187,96.107,574.422,569.682,0.0
55432.0,STARLINK-5637,PAYLOAD,2023-05-16 19:27:13,14.98331316,0.0003396,69.9983,176.0527,270.843,89.234,5.7168e-06,-2.5e-07,0.0,0 STARLINK-5637,1 55432U 23014AT  23136.81057796 -.00000025  00000-0  57168-5 0  9997,2 55432  69.9983 176.0527 0003396 270.8430  89.2340 14.98331316 17102,6950.189,96.107,574.414,569.694,0.0
55432.0,STARLINK-5637,PAYLOAD,2023-05-17 09:52:26,14.98330096,0.0003318,69.9983,174.5378,268.8466,91.2312,-1.3879e-05,-2.59e-06,0.0,0 STARLINK-5637,1 55432U 23014AT  23137.41141844 -.00000259  00000-0 -13879-4 0  9992,2 55432  69.9983 174.5378 0003318 268.8466  91.2312 14.98330096 16250,6950.193,96.107,574.364,569.752,0.0
55432.0,STARLINK-5637,PAYLOAD,2023-05-17 19:29:14,14.98349347,0.0003494,69.9983,173.5277,273.7034,86.3725,-0.0003322,-4.057e-05,0.0,0 STARLINK-5637,1 55432U 23014AT  23137.81197253 -.00004057  00000-0 -33220-3 0  9992,2 55432  69.9983 173.5277 0003494 273.7034  86.3725 14.98349347 17251,6950.133,96.106,574.426,569.57,0.0
55432.0,STARLINK-5637,PAYLOAD,2023-05-18 11:30:35,14.98329568,0.000344,69.9982,171.8445,269.9869,90.0896,-3.3378e-05,-4.91e-06,0.0,0 STARLINK-5637,1 55432U 23014AT  23138.47957808 -.00000491  00000-0 -33378-4 0  9998,2 55432  69.9982 171.8445 0003440 269.9869  90.0896 14.98329568 16413,6950.194,96.107,574.45,569.668,0.0
55432.0,STARLINK-5637,PAYLOAD,2023-05-18 13:06:43,14.98329586,0.000344,69.9982,171.6762,270.0113,90.0652,-3.2453e-05,-4.8e-06,0.0,0 STARLINK-5637,1 55432U 23014AT  23138.54633805 -.00000480  00000-0 -32453-4 0  9995,2 55432  69.9982 171.6762 0003440 270.0113  90.0652 14.98329586 17363,6950.194,96.107,574.45,569.668,0.0
55432.0,STARLINK-5637,PAYLOAD,2023-05-18 19:31:15,14.9833028,0.0003451,69.9982,171.003,269.4884,90.5879,-1.5965e-05,-2.84e-06,0.0,0 STARLINK-5637,1 55432U 23014AT  23138.81337693 -.00000284  00000-0 -15965-4 0  9992,2 55432  69.9982 171.0030 0003451 269.4884  90.5879 14.98330280 17408,6950.192,96.107,574.456,569.659,0.0
55432.0,STARLINK-5637,PAYLOAD,2023-05-19 11:32:36,14.98329222,0.0003518,69.9981,169.3198,269.0243,91.0513,-4.5527e-07,-9.9e-07,0.0,0 STARLINK-5637,1 55432U 23014AT  23139.48097693 -.00000099  00000-0 -45527-6 0  9992,2 55432  69.9981 169.3198 0003518 269.0243  91.0513 14.98329222 16562,6950.195,96.107,574.505,569.615,0.0
55432.0,STARLINK-5637,PAYLOAD,2023-05-19 19:33:16,14.9832967,0.0003524,69.9981,168.4781,269.0246,91.051,3.9147e-06,-4.6e-07,0.0,0 STARLINK-5637,1 55432U 23014AT  23139.81477646 -.00000046  00000-0  39147-5 0  9990,2 55432  69.9981 168.4781 0003524 269.0246  91.0510 14.98329670 17554,6950.194,96.107,574.508,569.61,0.0
55432.0,STARLINK-5637,PAYLOAD,2023-05-20 11:34:37,14.98331786,0.000356,69.998,166.7948,268.9799,91.0952,3.65e-05,3.42e-06,0.0,0 STARLINK-5637,1 55432U 23014AT  23140.48237370  .00000342  00000-0  36500-4 0  9990,2 55432  69.9980 166.7948 0003560 268.9799  91.0952 14.98331786 16718,6950.187,96.107,574.527,569.578,0.0
55432.0,STARLINK-5637,PAYLOAD,2023-05-20 19:35:17,14.98332006,0.000356,69.9981,165.9531,268.9641,91.111,3.2282e-05,2.92e-06,0.0,0 STARLINK-5637,1 55432U 23014AT  23140.81617313  .00000292  00000-0  32282-4 0  9993,2 55432  69.9981 165.9531 0003560 268.9641  91.1110 14.98332006 17707,6950.187,96.107,574.526,569.577,0.0
55432.0,STARLINK-5637,PAYLOAD,2023-05-21 11:36:37,14.98333103,0.0003549,69.9982,164.2704,270.1206,89.9546,3.7446e-05,3.54e-06,0.0,0 STARLINK-5637,1 55432U 23014AT  23141.48377121  .00000354  00000-0  37446-4 0  9993,2 55432  69.9982 164.2704 0003549 270.1206  89.9546 14.98333103 17809,6950.183,96.107,574.515,569.582,0.0
55432.0,STARLINK-5637,PAYLOAD,2023-05-22 10:02:30,14.98329726,0.0003502,69.9983,161.9136,269.2808,90.7949,-2.4589e-05,-3.86e-06,0.0,0 STARLINK-5637,1 55432U 23014AT  23142.41841413 -.00000386  00000-0 -24589-4 0  9998,2 55432  69.9983 161.9136 0003502 269.2808  90.7949 14.98329726 17947,6950.194,96.107,574.493,569.625,0.0
55432.0,STARLINK-5637,PAYLOAD,2023-05-22 18:03:11,14.98329597,0.0003494,69.9983,161.0719,269.3495,90.7264,-3.7406e-05,-5.39e-06,0.0,0 STARLINK-5637,1 55432U 23014AT  23142.75221445 -.00000539  00000-0 -37406-4 0  9994,2 55432  69.9983 161.0719 0003494 269.3495  90.7264 14.98329597 17056,6950.194,96.107,574.488,569.631,0.0
55432.0,STARLINK-5637,PAYLOAD,2023-05-23 18:05:12,14.98328508,0.0003523,69.9983,158.5468,269.2493,90.8262,-9.5338e-06,-2.07e-06,0.0,0 STARLINK-5637,1 55432U 23014AT  23143.75361427 -.00000207  00000-0 -95338-5 0  9991,2 55432  69.9983 158.5468 0003523 269.2493  90.8262 14.98328508 17205,6950.198,96.107,574.511,569.614,0.0
55432.0,STARLINK-5637,PAYLOAD,2023-05-24 08:30:24,14.98328742,0.0003543,69.9982,157.032,267.9909,92.0844,9.7591e-06,2.3e-07,0.0,0 STARLINK-5637,1 55432U 23014AT  23144.35445382  .00000023  00000-0  97591-5 0  9998,2 55432  69.9982 157.0320 0003543 267.9909  92.0844 14.98328742 18238,6950.197,96.107,574.524,569.599,0.0
55432.0,STARLINK-5637,PAYLOAD,2023-05-26 03:46:02,14.98329623,0.0003584,69.9979,152.4872,268.0875,91.9873,1.0577e-05,3.3e-07,0.0,0 STARLINK-5637,1 55432U 23014AT  23146.15697375  .00000033  00000-0  10577-4 0  9998,2 55432  69.9979 152.4872 0003584 268.0875  91.9873 14.98329623 17568,6950.194,96.107,574.55,569.568,0.0
55432.0,STARLINK-5637,PAYLOAD,2023-05-26 10:10:34,14.98331055,0.0003576,69.998,151.8139,268.0736,92.0014,2.032e-05,1.49e-06,0.0,0 STARLINK-5637,1 55432U 23014AT  23146.42401243  .00000149  00000-0  20320-4 0  9990,2 55432  69.9980 151.8139 0003576 268.0736  92.0014 14.98331055 18546,6950.19,96.107,574.54,569.569,0.0
55432.0,STARLINK-5637,PAYLOAD,2023-05-27 10:12:35,14.98329788,0.0003592,69.9979,149.2888,268.2401,91.8346,1.4764e-07,-9.1e-07,0.0,0 STARLINK-5637,1 55432U 23014AT  23147.42541350 -.00000091  00000-0  14764-6 0  9999,2 55432  69.9979 149.2888 0003592 268.2401  91.8346 14.98329788 17752,6950.194,96.107,574.555,569.562,0.0
55432.0,STARLINK-5637,PAYLOAD,2023-05-28 05:26:12,14.98331566,0.0003568,69.998,147.2688,268.5736,91.5014,8.0908e-06,3e-08,0.0,0 STARLINK-5637,1 55432U 23014AT  23148.22653166  .00000003  00000-0  80908-5 0  9991,2 55432  69.9980 147.2688 0003568 268.5736  91.5014 14.98331566 18811,6950.188,96.107,574.533,569.573,0.0
55432.0,STARLINK-5637,PAYLOAD,2023-05-28 10:14:36,14.98332434,0.0003552,69.998,146.7638,268.6648,91.4104,1.8637e-05,1.29e-06,0.0,0 STARLINK-5637,1 55432U 23014AT  23148.42681055  .00000129  00000-0  18637-4 0  9999,2 55432  69.9980 146.7638 0003552 268.6648  91.4104 14.98332434 17909,6950.185,96.107,574.519,569.582,0.0
55432.0,STARLINK-5637,PAYLOAD,2023-05-28 16:39:08,14.98331096,0.0003538,69.9981,146.0904,268.894,91.1814,1.0651e-05,3.4e-07,0.0,0 STARLINK-5637,1 55432U 23014AT  23148.69385126  .00000034  00000-0  10651-4 0  9991,2 55432  69.9981 146.0904 0003538 268.8940  91.1814 14.98331096 18886,6950.19,96.107,574.513,569.596,0.0
55432.0,STARLINK-5637,PAYLOAD,2023-05-29 10:16:37,14.98331294,0.0003541,69.998,144.2391,267.7062,92.3691,2.6737e-05,2.26e-06,0.0,0 STARLINK-5637,1 55432U 23014AT  23149.42820990  .00000226  00000-0  26737-4 0  9991,2 55432  69.9980 144.2391 0003541 267.7062  92.3691 14.98331294 18057,6950.189,96.107,574.515,569.593,0.0
55432.0,STARLINK-5637,PAYLOAD,2023-05-29 16:41:09,14.98329325,0.0003538,69.9981,143.5658,267.7019,92.3735,-7.1416e-06,-1.78e-06,0.0,0 STARLINK-5637,1 55432U 23014AT  23149.69525182 -.00000178  00000-0 -71416-5 0  9998,2 55432  69.9981 143.5658 0003538 267.7019  92.3735 14.98329325 19034,6950.195,96.107,574.519,569.601,0.0
